NORAD_CAT_ID,OBJECT_NAME,OBJECT_TYPE,EPOCH,MEAN_MOTION,ECCENTRICITY,INCLINATION,RA_OF_ASC_NODE,ARG_OF_PERICENTER,MEAN_ANOMALY,BSTAR,MEAN_MOTION_DOT,MEAN_MOTION_DDOT,TLE_LINE0,TLE_LINE1,TLE_LINE2,SEMIMAJOR_AXIS,PERIOD,APOGEE,PERIGEE,DECAYED
52499.0,STARLINK-3894,PAYLOAD,2022-07-28 22:00:00,15.40883236,0.0001296999999999,53.2174,215.237,61.1699,224.4776,-0.027856,-0.01067648,0.0,0 STARLINK-3894,1 52499U 22049BA  22209.91667824 -.01067648  00000-0 -27856-1 0  9997,2 52499  53.2174 215.2370 0001297  61.1699 224.4776 15.40883236  1300,6821.638000000001,93.453,444.388,442.619,0.0
52499.0,STARLINK-3894,PAYLOAD,2022-07-29 00:00:00,15.40693504,0.0001289,53.2176,214.8452,54.3629,333.7781,-0.02802,-0.01067192,0.0,0 STARLINK-3894,1 52499U 22049BA  22210.00001157 -.01067192  00000-0 -28020-1 0  9998,2 52499  53.2176 214.8452 0001289  54.3629 333.7781 15.40693504 13306,6822.198,93.464,444.943,443.184,0.0
52499.0,STARLINK-3894,PAYLOAD,2022-07-29 14:00:01,15.39366999,0.0001445,53.2172,212.1062,42.6468,341.3522,-0.029397,-0.01071089,0.0,0 STARLINK-3894,1 52499U 22049BA  22210.58334491 -.01071089  00000-0 -29397-1 0  9999,2 52499  53.2172 212.1062 0001445  42.6468 341.3522 15.39366999  1303,6826.1169999999975,93.545,448.968,446.996,0.0
52499.0,STARLINK-3894,PAYLOAD,2022-07-29 22:00:00,15.38605002,0.0001450999999999,53.2174,210.541,46.4507,25.3584,-0.030057,-0.01068213,0.0,0 STARLINK-3894,1 52499U 22049BA  22210.91667824 -.01068213  00000-0 -30057-1 0  9995,2 52499  53.2174 210.5410 0001451  46.4507  25.3584 15.38605002 13442,6828.371,93.591,451.226,449.245,0.0
52499.0,STARLINK-3894,PAYLOAD,2022-07-30 14:00:01,15.37087278,0.0001536,53.2173,207.4209,53.0134,111.6718,-0.031612,-0.01068992,0.0,0 STARLINK-3894,1 52499U 22049BA  22211.58334491 -.01068992  00000-0 -31612-1 0  9992,2 52499  53.2173 207.4209 0001536  53.0134 111.6718 15.37087278  1304,6832.865,93.684,455.779,453.68,0.0
52499.0,STARLINK-3894,PAYLOAD,2022-07-30 22:00:00,15.3632781,0.0001538,53.2173,205.8613,53.7158,156.0401,-0.0324259999999999,-0.01069735,0.0,0 STARLINK-3894,1 52499U 22049BA  22211.91667824 -.01069735  00000-0 -32426-1 0  9998,2 52499  53.2173 205.8613 0001538  53.7158 156.0401 15.36327810  1300,6835.116,93.73,458.033,455.93,0.0
52499.0,STARLINK-3894,PAYLOAD,2022-07-31 14:00:01,15.34810159,0.0001329,53.2172,202.7518,58.1536,239.0028,-0.034114,-0.01071478,0.0,0 STARLINK-3894,1 52499U 22049BA  22212.58334491 -.01071478  00000-0 -34114-1 0  9996,2 52499  53.2172 202.7518 0001329  58.1536 239.0028 15.34810159  1304,6839.621,93.823,462.395,460.577,0.0
52499.0,STARLINK-3894,PAYLOAD,2022-07-31 22:00:00,15.34046823,0.0001473,53.2174,201.1978,44.6004,294.8898,-0.034731,-0.01065121,0.0,0 STARLINK-3894,1 52499U 22049BA  22212.91667824 -.01065121  00000-0 -34731-1 0  9995,2 52499  53.2174 201.1978 0001473  44.6004 294.8898 15.34046823 13754,6841.89,93.869,464.763,462.747,0.0
52499.0,STARLINK-3894,PAYLOAD,2022-08-01 14:00:01,15.32529936,0.0001428,53.2173,198.0991,48.1014,13.313,-0.0365529999999999,-0.01067991,0.0,0 STARLINK-3894,1 52499U 22049BA  22213.58334491 -.01067991  00000-0 -36553-1 0  9991,2 52499  53.2173 198.0991 0001428  48.1014  13.3130 15.32529936  1302,6846.404,93.962,469.247,467.291,0.0
52499.0,STARLINK-3894,PAYLOAD,2022-08-01 22:00:00,15.31769384,0.0001675,53.2174,196.5503,42.1224,58.887,-0.0373709999999999,-0.01066222,0.0,0 STARLINK-3894,1 52499U 22049BA  22213.91667824 -.01066222  00000-0 -37371-1 0  9992,2 52499  53.2174 196.5503 0001675  42.1224  58.8870 15.31769384  1303,6848.67,94.009,471.682,469.388,0.0
52499.0,STARLINK-3894,PAYLOAD,2022-08-02 14:00:01,15.30251024,0.0001669,53.2174,193.4623,47.2803,130.178,-0.039221,-0.01066972,0.0,0 STARLINK-3894,1 52499U 22049BA  22214.58334491 -.01066972  00000-0 -39221-1 0  9995,2 52499  53.2174 193.4623 0001669  47.2803 130.1780 15.30251024 14005,6853.2,94.102,476.209,473.921,0.0
52499.0,STARLINK-3894,PAYLOAD,2022-08-03 14:00:01,15.27973755,0.0001557,53.2174,188.8418,45.9531,239.3343,-0.042178,-0.01069109,0.0,0 STARLINK-3894,1 52499U 22049BA  22215.58334491 -.01069109  00000-0 -42178-1 0  9996,2 52499  53.2174 188.8418 0001557  45.9531 239.3343 15.27973755 14166,6860.007,94.242,482.94,480.804,0.0
52499.0,STARLINK-3894,PAYLOAD,2022-08-03 22:00:01,15.27210888,0.0001567,53.2176,187.304,43.931,275.5393,-0.042887,-0.01062533,0.0,0 STARLINK-3894,1 52499U 22049BA  22215.91668981 -.01062533  00000-0 -42887-1 0  9998,2 52499  53.2176 187.3040 0001567  43.9310 275.5393 15.27210888  1307,6862.292,94.29,485.232,483.081,0.0
52499.0,STARLINK-3894,PAYLOAD,2022-08-04 14:00:01,15.25694387,0.0001584,53.2175,184.2373,39.6442,345.2593,-0.04514,-0.01067444,0.0,0 STARLINK-3894,1 52499U 22049BA  22216.58334491 -.01067444  00000-0 -45140-1 0  9999,2 52499  53.2175 184.2373 0001584  39.6442 345.2593 15.25694387  1303,6866.8380000000025,94.383,489.791,487.615,0.0
52499.0,STARLINK-3894,PAYLOAD,2022-08-04 22:00:00,15.24932156,0.0001774999999999,53.2175,182.7052,36.3204,19.9641,-0.045941,-0.01062143,0.0,0 STARLINK-3894,1 52499U 22049BA  22216.91667824 -.01062143  00000-0 -45941-1 0  9995,2 52499  53.2175 182.7052 0001775  36.3204  19.9641 15.24932156  1309,6869.126,94.43,492.21,489.772,0.0
52499.0,STARLINK-3894,PAYLOAD,2022-08-05 14:00:01,15.23414718,0.000181,53.2175,179.6488,38.8133,77.5556,-0.048225,-0.01065017,0.0,0 STARLINK-3894,1 52499U 22049BA  22217.58335648 -.01065017  00000-0 -48225-1 0  9996,2 52499  53.2175 179.6488 0001810  38.8133  77.5556 15.23414718  1308,6873.687,94.524,496.796,494.3080000000001,0.0
52499.0,STARLINK-3894,PAYLOAD,2022-08-05 22:00:00,15.22654283,0.0001853,53.2177,178.1222,41.326,103.6218,-0.049221,-0.01062832,0.0,0 STARLINK-3894,1 52499U 22049BA  22217.91667824 -.01062832  00000-0 -49221-1 0  9996,2 52499  53.2177 178.1222 0001853  41.3260 103.6218 15.22654283  1305,6875.975,94.572,499.114,496.566,0.0
52499.0,STARLINK-3894,PAYLOAD,2022-08-06 13:08:36,15.23245989,0.000204,53.2196,175.2134,96.6141,263.509,-0.014279,-0.00328054,0.0,0 STARLINK-3894,1 52499U 22049BA  22218.54764726 -.00328054  00000-0 -14279-1 0  9990,2 52499  53.2196 175.2134 0002040  96.6141 263.5090 15.23245989 14618,6874.194,94.535,497.462,494.657,0.0
52499.0,STARLINK-3894,PAYLOAD,2022-08-06 22:00:00,15.20375854,0.0001892,53.2176,173.5555,40.5438,184.8533,-0.052631,-0.01062452,0.0,0 STARLINK-3894,1 52499U 22049BA  22218.91667824 -.01062452  00000-0 -52631-1 0  9994,2 52499  53.2176 173.5555 0001892  40.5438 184.8533 15.20375854  1306,6882.843000000003,94.713,506.01,503.406,0.0
52499.0,STARLINK-3894,PAYLOAD,2022-08-07 14:00:01,15.18858794,0.0001776,53.2175,170.52,39.2652,235.2012,-0.055241,-0.0107988999999999,0.0,0 STARLINK-3894,1 52499U 22049BA  22219.58334491 -.01079890  00000-0 -55241-1 0  9993,2 52499  53.2175 170.5200 0001776  39.2652 235.2012 15.18858794  1302,6887.425,94.808,510.514,508.067,0.0
52499.0,STARLINK-3894,PAYLOAD,2022-08-07 22:00:00,15.18097388,0.0001757,53.2175,169.0044,39.8429,257.7899,-0.05624,-0.01075703,0.0,0 STARLINK-3894,1 52499U 22049BA  22219.91667824 -.01075703  00000-0 -56240-1 0  9998,2 52499  53.2175 169.0044 0001757  39.8429 257.7899 15.18097388  1304,6889.728,94.856,512.804,510.383,0.0
52499.0,STARLINK-3894,PAYLOAD,2022-08-08 14:00:01,15.16579541,0.0001686999999999,53.2175,165.9795,37.5538,303.7359,-0.058947,-0.01078914,0.0,0 STARLINK-3894,1 52499U 22049BA  22220.58335648 -.01078914  00000-0 -58947-1 0  9992,2 52499  53.2175 165.9795 0001687  37.5538 303.7359 15.16579541  1307,6894.324000000001,94.951,517.352,515.026,0.0
52499.0,STARLINK-3894,PAYLOAD,2022-08-08 20:00:01,15.16007545,0.0001737,53.2174,164.8462,43.9043,222.7926,-0.059618,-0.01073845,0.0,0 STARLINK-3894,1 52499U 22049BA  22220.83335648 -.01073845  00000-0 -59618-1 0  9994,2 52499  53.2174 164.8462 0001737  43.9043 222.7926 15.16007545 14969,6896.058000000001,94.986,519.121,516.726,0.0
52499.0,STARLINK-3894,PAYLOAD,2022-08-08 22:00:00,15.15818908,0.0001715,53.2175,164.4695,38.1366,323.5179,-0.0600679999999999,-0.01075956,0.0,0 STARLINK-3894,1 52499U 22049BA  22220.91667824 -.01075956  00000-0 -60068-1 0  9993,2 52499  53.2175 164.4695 0001715  38.1366 323.5179 15.15818908  1300,6896.630999999999,94.998,519.678,517.313,0.0
52499.0,STARLINK-3894,PAYLOAD,2022-08-09 14:00:01,15.14299632,0.0001745,53.2175,161.455,36.4048,3.3681,-0.062763,-0.01076577,0.0,0 STARLINK-3894,1 52499U 22049BA  22221.58334491 -.01076577  00000-0 -62763-1 0  9992,2 52499  53.2175 161.4550 0001745  36.4048   3.3681 15.14299632  1305,6901.243,95.093,524.312,521.903,0.0
52499.0,STARLINK-3894,PAYLOAD,2022-08-09 22:00:00,15.13540143,0.0001827,53.2175,159.9504,36.5689,20.8936,-0.06408,-0.01075863,0.0,0 STARLINK-3894,1 52499U 22049BA  22221.91667824 -.01075863  00000-0 -64080-1 0  9999,2 52499  53.2175 159.9504 0001827  36.5689  20.8936 15.13540143  1301,6903.551,95.141,526.677,524.155,0.0
52499.0,STARLINK-3894,PAYLOAD,2022-08-10 14:00:01,15.12019823,0.0001996999999999,53.2175,156.9463,32.5072,57.5979,-0.0667669999999999,-0.01074212,0.0,0 STARLINK-3894,1 52499U 22049BA  22222.58334491 -.01074212  00000-0 -66767-1 0  9995,2 52499  53.2175 156.9463 0001997  32.5072  57.5979 15.12019823  1301,6908.178000000001,95.237,531.423,528.663,0.0
52499.0,STARLINK-3894,PAYLOAD,2022-08-10 17:07:18,15.11722171,0.0001904,53.2173,156.3605,34.5441,43.8798,-0.067194,-0.0107225,0.0,0 STARLINK-3894,1 52499U 22049BA  22222.71341435 -.01072250  00000-0 -67194-1 0  9991,2 52499  53.2173 156.3605 0001904  34.5441  43.8798 15.11722171 15242,6909.085,95.256,532.265,529.634,0.0
52499.0,STARLINK-3894,PAYLOAD,2022-08-10 22:00:00,15.11261137,0.0001979,53.2176,155.4472,35.769,69.2874,-0.068268,-0.0107523,0.0,0 STARLINK-3894,1 52499U 22049BA  22222.91667824 -.01075230  00000-0 -68268-1 0  9990,2 52499  53.2176 155.4472 0001979  35.7690  69.2874 15.11261137  1307,6910.49,95.285,533.722,530.987,0.0
